ONEWEB-0289             
1 49079U 21075E   24041.42068253  .00000047  00000+0  88896-4 0  9998
2 49079  87.9246 176.4802 0001783  99.9432 260.1901 13.17647562121241
ONEWEB-0290             
1 49080U 21075F   24041.40327190 -.00000065  00000+0 -20150-3 0  9996
2 49080  87.9246 176.4468 0001243  86.7985 273.3288 13.17648628120651
ONEWEB-0291             
1 49081U 21075G   24041.38746198  .00000072  00000+0  15315-3 0  9990
2 49081  87.9238 176.4771 0001231  99.6025 260.5246 13.17651515120645
ONEWEB-0293             
1 49082U 21075H   24041.41276229 -.00000213  00000+0 -58199-3 0  9994
2 49082  87.9245 176.4794 0001349  95.7824 264.3462 13.17648127120673
ONEWEB-0294             
1 49083U 21075J   24041.35484443 -.00000365  00000+0 -10509-2 0  9997
2 49083  87.9036 161.3662 0001027  72.2251 287.8989 13.12443144122051
ONEWEB-0295             
1 49084U 21075K   24041.41436060  .00000044  00000+0  80915-4 0  9999
2 49084  87.9246 176.4549 0001108 111.7593 248.3656 13.17650192120637
ONEWEB-0296             
1 49085U 21075L   24041.33737411  .00000130  00000+0  32598-3 0  9994
2 49085  87.9039 161.3683 0000830 116.3065 243.8149 13.12441565122058
ONEWEB-0297             
1 49086U 21075M   24041.36913099 -.00000154  00000+0 -46440-3 0  9995
2 49086  87.9049 161.3595 0001710 109.4562 250.6752 13.12444108122664
